{
  "type": "FeatureCollection",
  "features": [
    {
      "type": "Feature",
      "properties": {
        "norad_id": 67060,
        "name": "HULIANWANG DIGUI 16B",
        "group": "last-30-days",
        "lat": 34.90683633339702,
        "lon": 134.2188865625096,
        "alt_km": 806.9071774551758,
        "timestamp": "2025-12-17T23:38:05.627591+00:00",
        "meta_object_name": "HULIANWANG DIGUI 16B",
        "meta_object_id": "2025-295B",
        "meta_epoch": "2025-12-12T05:06:25.468992",
        "meta_mean_motion": 14.26022254,
        "meta_eccentricity": 0.0013423,
        "meta_inclination": 50.0012,
        "meta_ra_of_asc_node": 14.4776,
        "meta_arg_of_pericenter": 244.6732,
        "meta_mean_anomaly": 115.2792,
        "meta_ephemeris_type": 0,
        "meta_classification_type": "U",
        "meta_norad_cat_id": 67060,
        "meta_element_set_no": 999,
        "meta_rev_at_epoch": 4,
        "meta_bstar": 4.398892e-06,
        "meta_mean_motion_dot": -1.5e-06,
        "meta_mean_motion_ddot": 0,
        "tle_line1": "1 67060U 25295B   25346.21279478 -.00000150  00000+0  43989-5 0  9996",
        "tle_line2": "2 67060  50.0012  14.4776 0013423 244.6732 115.2792 14.26022254    48"
      },
      "geometry": {
        "type": "Point",
        "coordinates": [
          134.2188865625096,
          34.90683633339702
        ]
      }
    },
    {
      "type": "Feature",
      "properties": {
        "norad_id": 67062,
        "name": "HULIANWANG DIGUI 16D",
        "group": "last-30-days",
        "lat": 36.20501707005512,
        "lon": 132.167445733329,
        "alt_km": 807.5185804681996,
        "timestamp": "2025-12-17T23:38:05.627600+00:00",
        "meta_object_name": "HULIANWANG DIGUI 16D",
        "meta_object_id": "2025-295D",
        "meta_epoch": "2025-12-12T05:06:24.477120",
        "meta_mean_motion": 14.25916921,
        "meta_eccentricity": 0.00124974,
        "meta_inclination": 50.0052,
        "meta_ra_of_asc_node": 14.4731,
        "meta_arg_of_pericenter": 251.2247,
        "meta_mean_anomaly": 108.7311,
        "meta_ephemeris_type": 0,
        "meta_classification_type": "U",
        "meta_norad_cat_id": 67062,
        "meta_element_set_no": 999,
        "meta_rev_at_epoch": 4,
        "meta_bstar": 3.753899e-06,
        "meta_mean_motion_dot": -1.51e-06,
        "meta_mean_motion_ddot": 0,
        "tle_line1": "1 67062U 25295D   25346.21278330 -.00000151  00000+0  37539-5 0  9999",
        "tle_line2": "2 67062  50.0052  14.4731 0012497 251.2247 108.7311 14.25916921    46"
      },
      "geometry": {
        "type": "Point",
        "coordinates": [
          132.167445733329,
          36.20501707005512
        ]
      }
    },
    {
      "type": "Feature",
      "properties": {
        "norad_id": 67064,
        "name": "HULIANWANG DIGUI 16F",
        "group": "last-30-days",
        "lat": 21.603589959884985,
        "lon": 150.60961357306988,
        "alt_km": 804.0952750146207,
        "timestamp": "2025-12-17T23:38:05.627610+00:00",
        "meta_object_name": "HULIANWANG DIGUI 16F",
        "meta_object_id": "2025-295F",
        "meta_epoch": "2025-12-12T05:06:22.414752",
        "meta_mean_motion": 14.26957674,
        "meta_eccentricity": 0.00149026,
        "meta_inclination": 50.0027,
        "meta_ra_of_asc_node": 14.4596,
        "meta_arg_of_pericenter": 247.8107,
        "meta_mean_anomaly": 112.1227,
        "meta_ephemeris_type": 0,
        "meta_classification_type": "U",
        "meta_norad_cat_id": 67064,
        "meta_element_set_no": 999,
        "meta_rev_at_epoch": 4,
        "meta_bstar": 2.6251967e-05,
        "meta_mean_motion_dot": -9.6e-07,
        "meta_mean_motion_ddot": 0,
        "tle_line1": "1 67064U 25295F   25346.21275943 -.00000096  00000+0  26252-4 0  9995",
        "tle_line2": "2 67064  50.0027  14.4596 0014902 247.8107 112.1227 14.26957674    44"
      },
      "geometry": {
        "type": "Point",
        "coordinates": [
          150.60961357306988,
          21.603589959884985
        ]
      }
    },
    {
      "type": "Feature",
      "properties": {
        "norad_id": 67066,
        "name": "HULIANWANG DIGUI 16H",
        "group": "last-30-days",
        "lat": 29.161224065665515,
        "lon": 142.11558214774965,
        "alt_km": 804.971166655775,
        "timestamp": "2025-12-17T23:38:05.627620+00:00",
        "meta_object_name": "HULIANWANG DIGUI 16H",
        "meta_object_id": "2025-295H",
        "meta_epoch": "2025-12-12T05:06:20.088000",
        "meta_mean_motion": 14.26429655,
        "meta_eccentricity": 0.00114905,
        "meta_inclination": 50.0029,
        "meta_ra_of_asc_node": 14.4606,
        "meta_arg_of_pericenter": 248.6611,
        "meta_mean_anomaly": 111.3077,
        "meta_ephemeris_type": 0,
        "meta_classification_type": "U",
        "meta_norad_cat_id": 67066,
        "meta_element_set_no": 999,
        "meta_rev_at_epoch": 4,
        "meta_bstar": 2.4353642e-05,
        "meta_mean_motion_dot": -1.01e-06,
        "meta_mean_motion_ddot": 0,
        "tle_line1": "1 67066U 25295H   25346.21273250 -.00000101  00000+0  24354-4 0  9994",
        "tle_line2": "2 67066  50.0029  14.4606 0011490 248.6611 111.3077 14.26429655    45"
      },
      "geometry": {
        "type": "Point",
        "coordinates": [
          142.11558214774965,
          29.161224065665515
        ]
      }
    },
    {
      "type": "Feature",
      "properties": {
        "norad_id": 67067,
        "name": "HULIANWANG DIGUI 16J",
        "group": "last-30-days",
        "lat": 30.043027176143354,
        "lon": 141.01522308442208,
        "alt_km": 805.177365520206,
        "timestamp": "2025-12-17T23:38:05.627647+00:00",
        "meta_object_name": "HULIANWANG DIGUI 16J",
        "meta_object_id": "2025-295J",
        "meta_epoch": "2025-12-12T05:06:18.555264",
        "meta_mean_motion": 14.26361638,
        "meta_eccentricity": 0.00104901,
        "meta_inclination": 50.0044,
        "meta_ra_of_asc_node": 14.4694,
        "meta_arg_of_pericenter": 253.0387,
        "meta_mean_anomaly": 106.9378,
        "meta_ephemeris_type": 0,
        "meta_classification_type": "U",
        "meta_norad_cat_id": 67067,
        "meta_element_set_no": 999,
        "meta_rev_at_epoch": 4,
        "meta_bstar": 6.475965e-06,
        "meta_mean_motion_dot": -1.45e-06,
        "meta_mean_motion_ddot": 0,
        "tle_line1": "1 67067U 25295J   25346.21271476 -.00000145  00000+0  64760-5 0  9997",
        "tle_line2": "2 67067  50.0044  14.4694 0010490 253.0387 106.9378 14.26361638    49"
      },
      "geometry": {
        "type": "Point",
        "coordinates": [
          141.01522308442208,
          30.043027176143354
        ]
      }
    },
    {
      "type": "Feature",
      "properties": {
        "norad_id": 67069,
        "name": "XIWANG-5 02",
        "group": "last-30-days",
        "lat": 40.975923496580165,
        "lon": 152.58766139383127,
        "alt_km": 499.54697542602935,
        "timestamp": "2025-12-17T23:38:05.627658+00:00",
        "meta_object_name": "XIWANG-5 02",
        "meta_object_id": "2025-296A",
        "meta_epoch": "2025-12-17T13:47:20.895360",
        "meta_mean_motion": 15.16765194,
        "meta_eccentricity": 0.00146092,
        "meta_inclination": 41.3523,
        "meta_ra_of_asc_node": 73.9907,
        "meta_arg_of_pericenter": 58.8947,
        "meta_mean_anomaly": 301.3306,
        "meta_ephemeris_type": 0,
        "meta_classification_type": "U",
        "meta_norad_cat_id": 67069,
        "meta_element_set_no": 999,
        "meta_rev_at_epoch": 69,
        "meta_bstar": 0.00053231273,
        "meta_mean_motion_dot": 0.00010489,
        "meta_mean_motion_ddot": 0,
        "tle_line1": "1 67069U 25296A   25351.57454740  .00010489  00000+0  53231-3 0  9992",
        "tle_line2": "2 67069  41.3523  73.9907 0014609  58.8947 301.3306 15.16765194   690"
      },
      "geometry": {
        "type": "Point",
        "coordinates": [
          152.58766139383127,
          40.975923496580165
        ]
      }
    },
    {
      "type": "Feature",
      "properties": {
        "norad_id": 67070,
        "name": "DEAR-5",
        "group": "last-30-days",
        "lat": 41.25946130226258,
        "lon": 157.45785340246118,
        "alt_km": 498.2998505500482,
        "timestamp": "2025-12-17T23:38:05.627670+00:00",
        "meta_object_name": "DEAR-5",
        "meta_object_id": "2025-296B",
        "meta_epoch": "2025-12-17T13:46:25.696992",
        "meta_mean_motion": 15.16870923,
        "meta_eccentricity": 0.00162977,
        "meta_inclination": 41.3551,
        "meta_ra_of_asc_node": 73.9884,
        "meta_arg_of_pericenter": 60.0812,
        "meta_mean_anomaly": 300.1626,
        "meta_ephemeris_type": 0,
        "meta_classification_type": "U",
        "meta_norad_cat_id": 67070,
        "meta_element_set_no": 999,
        "meta_rev_at_epoch": 68,
        "meta_bstar": 0.00027240519,
        "meta_mean_motion_dot": 5.282e-05,
        "meta_mean_motion_ddot": 0,
        "tle_line1": "1 67070U 25296B   25351.57390853  .00005282  00000+0  27241-3 0  9995",
        "tle_line2": "2 67070  41.3551  73.9884 0016297  60.0812 300.1626 15.16870923   686"
      },
      "geometry": {
        "type": "Point",
        "coordinates": [
          157.45785340246118,
          41.25946130226258
        ]
      }
    }
  ]
}